NORAD_CAT_ID,OBJECT_NAME,OBJECT_TYPE,EPOCH,MEAN_MOTION,ECCENTRICITY,INCLINATION,RA_OF_ASC_NODE,ARG_OF_PERICENTER,MEAN_ANOMALY,BSTAR,MEAN_MOTION_DOT,MEAN_MOTION_DDOT,TLE_LINE0,TLE_LINE1,TLE_LINE2,SEMIMAJOR_AXIS,PERIOD,APOGEE,PERIGEE,DECAYED
55634.0,STARLINK-5500,PAYLOAD,2024-02-25 14:56:38,14.99143555,0.0002916,69.9985,278.0034,270.8784,89.2041,0.0001419,1.636e-05,0.0,0 STARLINK-5500,1 55634U 23021G   24056.62267142  .00001636  00000-0  14190-3 0  9992,2 55634  69.9985 278.0034 0002916 270.8784  89.2041 14.99143555 56998,6947.678,96.055,571.569,567.517,0.0
55634.0,STARLINK-5500,PAYLOAD,2024-02-25 19:45:00,14.99057199,0.0003276,69.9983,277.4983,269.9942,90.0842,-0.00078863,-9.67e-05,0.0,0 STARLINK-5500,1 55634U 23021G   24056.82292348 -.00009670  00000-0 -78863-3 0  9995,2 55634  69.9983 277.4983 0003276 269.9942  90.0842 14.99057199 56725,6947.945,96.06,572.086,567.534,0.0
55634.0,STARLINK-5500,PAYLOAD,2024-02-25 22:57:18,14.98963087,0.0002849,69.9985,277.1614,274.191,85.8924,-0.0018179,-0.00022074,0.0,0 STARLINK-5500,1 55634U 23021G   24056.95646341 -.00022074  00000-0 -18179-2 0  9991,2 55634  69.9985 277.1614 0002849 274.1910  85.8924 14.98963087 57043,6948.236,96.066,572.08,568.121,0.0
55634.0,STARLINK-5500,PAYLOAD,2024-02-26 00:33:26,14.98926445,0.0002351,69.999,276.9928,274.4237,85.6654,-0.0021305,-0.00025814,0.0,0 STARLINK-5500,1 55634U 23021G   24057.02322550 -.00025814  00000-0 -21305-2 0  9993,2 55634  69.9990 276.9928 0002351 274.4237  85.6654 14.98926445 56759,6948.349,96.069,571.848,568.58,0.0
55634.0,STARLINK-5500,PAYLOAD,2024-02-26 08:34:04,14.98817946,0.0003104,69.9985,276.1512,276.7098,83.3708,-0.0031639,-0.00038118,0.0,0 STARLINK-5500,1 55634U 23021G   24057.35699089 -.00038118  00000-0 -31639-2 0  9995,2 55634  69.9985 276.1512 0003104 276.7098  83.3708 14.98817946 56807,6948.684,96.076,572.706,568.392,0.0
55634.0,STARLINK-5500,PAYLOAD,2024-02-26 14:58:38,14.98689287,0.0002667,69.999,275.478,272.4373,87.6481,-0.004329,-0.00051844,0.0,0 STARLINK-5500,1 55634U 23021G   24057.62405753 -.00051844  00000-0 -43290-2 0  9995,2 55634  69.9990 275.4780 0002667 272.4373  87.6481 14.98689287 57142,6949.082,96.084,572.8,569.094,0.0
55634.0,STARLINK-5500,PAYLOAD,2024-02-26 19:46:59,14.98666869,0.000298,69.9979,274.9732,262.2816,97.8005,-0.0043474,-0.00052034,0.0,0 STARLINK-5500,1 55634U 23021G   24057.82429783 -.00052034  00000-0 -43474-2 0  9992,2 55634  69.9979 274.9732 0002980 262.2816  97.8005 14.98666869 56872,6949.151,96.085,573.087,568.945,0.0
55634.0,STARLINK-5500,PAYLOAD,2024-02-26 21:23:06,14.98660257,0.0003196,69.9982,274.8055,264.1238,95.9557,-0.0044208,-0.00052896,0.0,0 STARLINK-5500,1 55634U 23021G   24057.89104794 -.00052896  00000-0 -44208-2 0  9993,2 55634  69.9982 274.8055 0003196 264.1238  95.9557 14.98660257 57183,6949.172,96.086,573.258,568.816,0.0
55634.0,STARLINK-5500,PAYLOAD,2024-02-27 00:35:20,14.98644734,0.0003081,69.9984,274.4678,269.9545,90.1261,-0.0044165,-0.00052824,0.0,0 STARLINK-5500,1 55634U 23021G   24058.02454826 -.00052824  00000-0 -44165-2 0  9996,2 55634  69.9984 274.4678 0003081 269.9545  90.1261 14.98644734 56909,6949.22,96.087,573.226,568.944,0.0
55634.0,STARLINK-5500,PAYLOAD,2024-02-27 15:00:25,14.98595793,0.0003149,69.9983,272.9527,266.3099,93.77,-0.0041103,-0.00049132,0.0,0 STARLINK-5500,1 55634U 23021G   24058.62528967 -.00049132  00000-0 -41103-2 0  9997,2 55634  69.9983 272.9527 0003149 266.3099  93.7700 14.98595793 57294,6949.371,96.09,573.424,569.048,0.0
55634.0,STARLINK-5500,PAYLOAD,2024-02-27 19:48:46,14.98580477,0.0003154,69.9984,272.4483,267.4093,92.6705,-0.0039725,-0.0004748,0.0,0 STARLINK-5500,1 55634U 23021G   24058.82554282 -.00047480  00000-0 -39725-2 0  9999,2 55634  69.9984 272.4483 0003154 267.4093  92.6705 14.98580477 57020,6949.418,96.091,573.475,569.092,0.0
55634.0,STARLINK-5500,PAYLOAD,2024-02-27 21:24:54,14.98573309,0.0002985,69.9984,272.28,265.0822,94.9997,-0.0038634,-0.00046178,0.0,0 STARLINK-5500,1 55634U 23021G   24058.89229480 -.00046178  00000-0 -38634-2 0  9996,2 55634  69.9984 272.2800 0002985 265.0822  94.9997 14.98573309 57334,6949.441,96.091,573.38,569.231,0.0
55634.0,STARLINK-5500,PAYLOAD,2024-02-28 00:37:09,14.98554732,0.0003231,69.9984,271.9432,270.3089,89.77,-0.0036307,-0.00043399,0.0,0 STARLINK-5500,1 55634U 23021G   24059.02580247 -.00043399  00000-0 -36307-2 0  9990,2 55634  69.9984 271.9432 0003231 270.3089  89.7700 14.98554732 57052,6949.498,96.093,573.608,569.118,0.0
55634.0,STARLINK-5500,PAYLOAD,2024-02-28 13:26:14,14.98353925,0.0002903,69.9981,270.5956,271.1998,88.8829,-0.00035263,-4.301e-05,0.0,0 STARLINK-5500,1 55634U 23021G   24059.55989336 -.00004301  00000-0 -35263-3 0  9991,2 55634  69.9981 270.5956 0002903 271.1998  88.8829 14.98353925 57130,6950.119,96.105,574.002,569.966,0.0
55634.0,STARLINK-5500,PAYLOAD,2024-02-28 15:02:22,14.98363393,0.0003006,69.9982,270.4278,271.0978,88.9837,-0.00049095,-5.951e-05,0.0,0 STARLINK-5500,1 55634U 23021G   24059.62664976 -.00005951  00000-0 -49095-3 0  9999,2 55634  69.9982 270.4278 0003006 271.0978  88.9837 14.98363393 57443,6950.09,96.105,574.044,569.865,0.0
55634.0,STARLINK-5500,PAYLOAD,2024-02-28 22:00:00,14.98333132,0.0002916,69.9996,269.6959,274.7095,209.3076,-0.00016705,-2.086e-05,0.0,0 STARLINK-5500,1 55634U 23021G   24059.91667824 -.00002086  00000-0 -16705-3 0  9994,2 55634  69.9996 269.6959 0002916 274.7095 209.3076 14.98333132 57186,6950.183,96.107,574.075,570.022,0.0
55634.0,STARLINK-5500,PAYLOAD,2024-02-29 15:04:24,14.98329956,0.0002849,69.9985,267.9024,270.5129,89.5703,2.5959e-05,2.17e-06,0.0,0 STARLINK-5500,1 55634U 23021G   24060.62805721  .00000217  00000-0  25959-4 0  9998,2 55634  69.9985 267.9024 0002849 270.5129  89.5703 14.98329956 57594,6950.193,96.107,574.038,570.078,0.0
55634.0,STARLINK-5500,PAYLOAD,2024-02-29 21:28:56,14.98329446,0.0002862,69.9986,267.2291,270.0294,90.0537,1.407e-05,7.5e-07,0.0,0 STARLINK-5500,1 55634U 23021G   24060.89509769  .00000075  00000-0  14070-4 0  9994,2 55634  69.9986 267.2291 0002862 270.0294  90.0537 14.98329446 57638,6950.195,96.107,574.049,570.07,0.0
55634.0,STARLINK-5500,PAYLOAD,2024-03-01 00:41:12,14.98331231,0.0002855,69.9986,266.8923,269.6571,90.426,3.3238e-05,3.04e-06,0.0,0 STARLINK-5500,1 55634U 23021G   24061.02861601  .00000304  00000-0  33238-4 0  9998,2 55634  69.9986 266.8923 0002855 269.6571  90.4260 14.98331231 57350,6950.189,96.107,574.038,570.07,0.0
55634.0,STARLINK-5500,PAYLOAD,2024-03-01 15:06:25,14.98330461,0.0002836,69.9988,265.3775,269.6665,90.4169,-2.1349e-05,-3.48e-06,0.0,0 STARLINK-5500,1 55634U 23021G   24061.62945801 -.00000348  00000-0 -21349-4 0  9999,2 55634  69.9988 265.3775 0002836 269.6665  90.4169 14.98330461 57749,6950.191,96.107,574.028,570.085,0.0
55634.0,STARLINK-5500,PAYLOAD,2024-03-01 21:30:57,14.98329923,0.0002846,69.9987,264.7041,269.6085,90.4748,-2.8835e-05,-4.37e-06,0.0,0 STARLINK-5500,1 55634U 23021G   24061.89649846 -.00000437  00000-0 -28835-4 0  9994,2 55634  69.9987 264.7041 0002846 269.6085  90.4748 14.98329923 57782,6950.193,96.107,574.036,570.08,0.0
55634.0,STARLINK-5500,PAYLOAD,2024-03-02 13:32:17,14.98330488,0.000289,69.9985,263.0209,269.5878,90.4949,4.4889e-05,4.43e-06,0.0,0 STARLINK-5500,1 55634U 23021G   24062.56409608  .00000443  00000-0  44889-4 0  9991,2 55634  69.9985 263.0209 0002890 269.5878  90.4949 14.98330488 57888,6950.191,96.107,574.065,570.048,0.0
55634.0,STARLINK-5500,PAYLOAD,2024-03-02 19:56:49,14.98335597,0.0002843,69.9984,262.3458,266.8738,93.2096,9.7553e-05,1.071e-05,0.0,0 STARLINK-5500,1 55634U 23021G   24062.83113088  .00001071  00000-0  97553-4 0  9999,2 55634  69.9984 262.3458 0002843 266.8738  93.2096 14.98335597 57620,6950.176,96.107,574.017,570.065,0.0
55634.0,STARLINK-5500,PAYLOAD,2024-03-02 21:32:57,14.98338251,0.0002827,69.9984,262.1776,267.1004,92.9831,0.00012629,1.414e-05,0.0,0 STARLINK-5500,1 55634U 23021G   24062.89788818  .00001414  00000-0  12629-3 0  9995,2 55634  69.9984 262.1776 0002827 267.1004  92.9831 14.98338251 57930,6950.167,96.106,573.997,570.068,0.0
55634.0,STARLINK-5500,PAYLOAD,2024-03-03 15:10:26,14.98329933,0.0002691,69.9985,260.3269,269.659,90.4261,2.0452e-05,1.51e-06,0.0,0 STARLINK-5500,1 55634U 23021G   24063.63225542  .00000151  00000-0  20452-4 0  9999,2 55634  69.9985 260.3269 0002691 269.6590  90.4261 14.98329933 58044,6950.193,96.107,573.928,570.188,0.0
55634.0,STARLINK-5500,PAYLOAD,2024-03-03 21:34:59,14.9832721,0.0002581,69.9987,259.6545,259.3114,100.7754,4.4892e-05,4.43e-06,0.0,0 STARLINK-5500,1 55634U 23021G   24063.89929684  .00000443  00000-0  44892-4 0  9993,2 55634  69.9987 259.6545 0002581 259.3114 100.7754 14.98327210 58082,6950.202,96.107,573.86,570.273,0.0
55634.0,STARLINK-5500,PAYLOAD,2024-03-03 23:11:07,14.98327047,0.0002497,69.9986,259.4852,261.9652,98.1224,3.7946e-05,3.6e-06,0.0,0 STARLINK-5500,1 55634U 23021G   24063.96605754  .00000360  00000-0  37946-4 0  9990,2 55634  69.9986 259.4852 0002497 261.9652  98.1224 14.98327047 57799,6950.202,96.107,573.802,570.332,0.0
55634.0,STARLINK-5500,PAYLOAD,2024-03-04 12:00:11,14.98363211,0.0002325,69.9975,258.1375,266.6751,93.4142,-0.00048616,-5.894e-05,0.0,0 STARLINK-5500,1 55634U 23021G   24064.50013227 -.00005894  00000-0 -48616-3 0  9993,2 55634  69.9975 258.1375 0002325 266.6751  93.4142 14.98363211 57874,6950.09,96.105,573.571,570.339,0.0
55634.0,STARLINK-5500,PAYLOAD,2024-03-04 13:36:19,14.98337651,0.0002708,69.9981,257.9702,266.605,93.4799,-1.1312e-05,-2.28e-06,0.0,0 STARLINK-5500,1 55634U 23021G   24064.56689058 -.00000228  00000-0 -11312-4 0  9990,2 55634  69.9981 257.9702 0002708 266.6050  93.4799 14.98337651 58181,6950.169,96.107,573.916,570.152,0.0
55634.0,STARLINK-5500,PAYLOAD,2024-03-04 21:36:56,14.98379485,0.000288,69.9984,257.1299,267.8128,92.2701,0.00045327,5.326e-05,0.0,0 STARLINK-5500,1 55634U 23021G   24064.90065098  .00005326  00000-0  45327-3 0  9994,2 55634  69.9984 257.1299 0002880 267.8128  92.2701 14.98379485 58234,6950.04,96.104,573.906,569.903,0.0
